STARLINK-5487           
1 55652U 23021AA  26068.69390068  .00000299  00000+0  32877-4 0  9994
2 55652  70.0013 184.3814 0003146 267.4295  92.6504 14.98333844168798
LEMUR-2-MARACHE-FRAN    
1 63262U 25052BE  26068.70885648  .00008220  00000+0  68460-3 0  9999
2 63262  97.6985 323.5335 0002324  45.7689 314.3725 14.98898773 53859
